INTELSAT 902 (IS-902)   
1 26900U 01039A   26197.10114556 -.00000297  00000+0  00000+0 0  9995
2 26900   6.1871  71.4271 0004216  42.6154 166.2078  1.00272315 90986
INTELSAT 904 (IS-904)   
1 27380U 02007A   26197.09558765 -.00000239  00000+0  00000+0 0  9992
2 27380   6.9902  68.8335 0005387  26.1937 201.8403  1.00270497 52052
DIRECTV 5 (TEMPO 1)     
1 27426U 02023A   26197.24975396 -.00000070  00000+0  00000+0 0  9994
2 27426   4.9501  74.9465 0003134  47.4055 151.5276  1.00271480 88414
INTELSAT 905 (IS-905)   
1 27438U 02027A   26197.26086447  .00000080  00000+0  00000+0 0  9993
2 27438   6.8244  69.4457 0003469  47.6226 133.7243  1.00271455 51659
GALAXY 3C (G-3C)        
1 27445U 02030A   26197.28406105 -.00000165  00000+0  00000+0 0  9999
2 27445   3.8071  77.5980 0001595  33.3565 190.5883  1.00270764 46780
INTELSAT 906 (IS-906)   
1 27513U 02041A   26197.21130720 -.00000001  00000+0  00000+0 0  9996
2 27513   5.8734  72.5616 0003773  26.2641 335.4486  1.00273353 87322
GALAXY 13 (HORIZONS-1)  
1 27954U 03044A   26197.29911912  .00000121  00000+0  00000+0 0  9999
2 27954   1.4918  83.4897 0002133  31.9487 136.3596  1.00271780 46865
INTELSAT 10-02          
1 28358U 04022A   26197.26974301 -.00000021  00000+0  00000+0 0  9993
2 28358   0.0559 254.5645 0000360 323.0101 172.6331  1.00273028 80843
DIRECTV 8               
1 28659U 05019A   26196.88994816  .00000000  00000+0  00000+0 0  9990
2 28659   0.0200  58.3119 0003196  72.1395   4.6229  1.00270575 77360
GALAXY 28 (G-28)        
1 28702U 05022A   26197.26454299 -.00000213  00000+0  00000+0 0  9999
2 28702   3.3708  78.5740 0002525  29.0956 254.5677  1.00271736 52266
GALAXY 16 (G-16)        
1 29236U 06023A   26197.30223499 -.00000137  00000+0  00000+0 0  9990
2 29236   0.0254 159.0359 0002540 314.2090 190.6830  1.00271534 73265
DIRECTV 9S              
1 29494U 06043A   26197.24419882 -.00000125  00000+0  00000+0 0  9991
2 29494   2.4938  80.5521 0004940  31.8964 168.3389  1.00271414 51672
GALAXY 17 (G-17)        
1 31307U 07016B   26197.30546087 -.00000218  00000+0  00000+0 0  9996
2 31307   3.0433  79.5319 0003600  34.8827 204.6661  1.00271587 70096
INTELSAT 11 (IS-11)     
1 32253U 07044B   26197.26948301 -.00000191  00000+0  00000+0 0  9998
2 32253   3.6392  78.3157 0004246 100.2976 210.3857  0.99052497 68737
HORIZONS-2              
1 32388U 07063B   26197.25526961 -.00000265  00000+0  00000+0 0  9993
2 32388   2.6751  80.2685 0003581  21.4177 210.4729  1.00268963 68100
DIRECTV 11              
1 32729U 08013A   26196.51016899 -.00000136  00000+0  00000+0 0  9997
2 32729   0.0353 223.2222 0000080 348.5472 166.0602  1.00271599 45871
GALAXY 18 (G-18)        
1 32951U 08024A   26196.88916816  .00000015  00000+0  00000+0 0  9999
2 32951   0.0149  64.7677 0002890  63.3023   2.7519  1.00271674 46146
GALAXY 19 (G-19)        
1 33376U 08045A   26197.30262409 -.00000150  00000+0  00000+0 0  9995
2 33376   0.0541 246.0677 0002378 239.2325 180.7824  1.00270918 65191
FM-5                    
1 35493U 09034A   26194.90035760 -.00000205  00000+0  00000+0 0  9998
2 35493   0.0457 259.5714 0000757  86.9227 183.2440  1.00271245 46912
INTELSAT 14 (IS-14)     
1 36097U 09064A   26197.26098963 -.00000284  00000+0  00000+0 0  9995
2 36097   0.0162 343.2667 0002251 141.4450 218.3188  1.00268332 60895
INTELSAT 15 (IS-15)     
1 36106U 09067A   26196.93024110 -.00000195  00000+0  00000+0 0  9996
2 36106   0.0167 359.1777 0002252 122.2404 232.3618  1.00268551 41511
DIRECTV 12              
1 36131U 09075A   26195.96641635 -.00000112  00000+0  00000+0 0  9991
2 36131   0.0065 109.4409 0000351 121.9560 306.6005  1.00271543 46831
INTELSAT 16 (IS-16)     
1 36397U 10006A   26197.25483627 -.00000255  00000+0  00000+0 0  9998
2 36397   0.0127  52.8977 0002390  85.3261 171.3870  1.00269781 59945
XM-5                    
1 37185U 10053A   26194.27598828 -.00000026  00000+0  00000+0 0  9991
2 37185   0.0648 265.0318 0001728 322.3275  47.9546  1.00270903 57741
INTELSAT 17 (IS-17)     
1 37238U 10065B   26197.20650130  .00000000  00000+0  00000+0 0  9995
2 37238   0.0365  99.3839 0003057  35.9376 299.0401  1.00269284 53531
INTELSAT 28 (IS-28)     
1 37392U 11016A   26197.26367632 -.00000237  00000+0  00000+0 0  9994
2 37392   1.8795  82.2676 0003719  40.4363 234.6057  1.00272105 53572
INTELSAT 18 (IS-18)     
1 37834U 11056A   26196.59271395  .00000043  00000+0  00000+0 0  9998
2 37834   0.0273 285.8659 0001888 199.7046 201.2331  1.00274455 54091
INTELSAT 22 (IS-22)     
1 38098U 12011A   26197.20650130 -.00000069  00000+0  00000+0 0  9999
2 38098   0.0164  44.7709 0001838  80.0858 315.6214  1.00271855  7470
INTELSAT 19 (IS-19)     
1 38356U 12030A   26197.08883609 -.00000067  00000+0  00000+0 0  9990
2 38356   0.0191  37.3690 0003199  90.3912   4.1400  1.00271428 50742
INTELSAT 20 (IS-20)     
1 38740U 12043A   26197.20650130 -.00000035  00000+0  00000+0 0  9991
2 38740   0.0126  66.9795 0001387 110.3777 259.5278  1.00272894 51030
INTELSAT 21 (IS-21)     
1 38749U 12045A   26197.25847628 -.00000295  00000+0  00000+0 0  9995
2 38749   0.0506 249.0427 0001572 237.3109 202.7878  1.00272644 50816
