OBJECT_NAME,OBJECT_ID,EPOCH,MEAN_MOTION,ECCENTRICITY,INCLINATION,RA_OF_ASC_NODE,ARG_OF_PERICENTER,MEAN_ANOMALY,EPHEMERIS_TYPE,CLASSIFICATION_TYPE,NORAD_CAT_ID,ELEMENT_SET_NO,REV_AT_EPOCH,BSTAR,MEAN_MOTION_DOT,MEAN_MOTION_DDOT
INTELSAT 902 (IS-902),2001-039A,2026-07-16T02:25:38.976384,1.00272315,.00042163,6.1871,71.4271,42.6154,166.2078,0,U,26900,999,9098,0,-.297E-5,0
INTELSAT 904 (IS-904),2002-007A,2026-07-16T02:17:38.772960,1.00270497,.00053878,6.9902,68.8335,26.1937,201.8403,0,U,27380,999,5205,0,-.239E-5,0
DIRECTV 5 (TEMPO 1),2002-023A,2026-07-16T05:59:38.742144,1.00271480,.00031347,4.9501,74.9465,47.4055,151.5276,0,U,27426,999,8841,0,-.7E-6,0
INTELSAT 905 (IS-905),2002-027A,2026-07-16T06:15:38.690208,1.00271455,.0003469,6.8244,69.4457,47.6226,133.7243,0,U,27438,999,5165,0,.8E-6,0
GALAXY 3C (G-3C),2002-030A,2026-07-16T06:49:02.874720,1.00270764,.00015951,3.8071,77.5980,33.3565,190.5883,0,U,27445,999,4678,0,-.165E-5,0
INTELSAT 906 (IS-906),2002-041A,2026-07-16T05:04:16.942080,1.00273353,.00037737,5.8734,72.5616,26.2641,335.4486,0,U,27513,999,8732,0,-.1E-7,0
GALAXY 13 (HORIZONS-1),2003-044A,2026-07-16T07:10:43.891968,1.00271780,.00021339,1.4918,83.4897,31.9487,136.3596,0,U,27954,999,4686,0,.121E-5,0
INTELSAT 10-02,2004-022A,2026-07-16T06:28:25.796064,1.00273028,.00003602,0.0559,254.5645,323.0101,172.6331,0,U,28358,999,8084,0,-.21E-6,0
DIRECTV 8,2005-019A,2026-07-15T21:21:31.521024,1.00270575,.0003196,0.0200,58.3119,72.1395,4.6229,0,U,28659,999,7736,0,0,0
GALAXY 28 (G-28),2005-022A,2026-07-16T06:20:56.514336,1.00271736,.0002525,3.3708,78.5740,29.0956,254.5677,0,U,28702,999,5226,0,-.213E-5,0
GALAXY 16 (G-16),2006-023A,2026-07-16T07:15:13.103136,1.00271534,.00025406,0.0254,159.0359,314.2090,190.6830,0,U,29236,999,7326,0,-.137E-5,0
DIRECTV 9S,2006-043A,2026-07-16T05:51:38.778048,1.00271414,.00049403,2.4938,80.5521,31.8964,168.3389,0,U,29494,999,5167,0,-.125E-5,0
GALAXY 17 (G-17),2007-016B,2026-07-16T07:19:51.819168,1.00271587,.00036001,3.0433,79.5319,34.8827,204.6661,0,U,31307,999,7009,0,-.218E-5,0
INTELSAT 11 (IS-11),2007-044B,2026-07-16T06:28:03.332064,0.99052497,.00042463,3.6392,78.3157,100.2976,210.3857,0,U,32253,999,6873,0,-.191E-5,0
HORIZONS-2,2007-063B,2026-07-16T06:07:35.294304,1.00268963,.00035814,2.6751,80.2685,21.4177,210.4729,0,U,32388,999,6810,0,-.265E-5,0
DIRECTV 11,2008-013A,2026-07-15T12:14:38.600736,1.00271599,.00000802,0.0353,223.2222,348.5472,166.0602,0,U,32729,999,4587,0,-.136E-5,0
GALAXY 18 (G-18),2008-024A,2026-07-15T21:20:24.129024,1.00271674,.000289,0.0149,64.7677,63.3023,2.7519,0,U,32951,999,4614,0,.15E-6,0
GALAXY 19 (G-19),2008-045A,2026-07-16T07:15:46.721376,1.00270918,.00023789,0.0541,246.0677,239.2325,180.7824,0,U,33376,999,6519,0,-.15E-5,0
FM-5,2009-034A,2026-07-13T21:36:30.896640,1.00271245,.00007579,0.0457,259.5714,86.9227,183.2440,0,U,35493,999,4691,0,-.205E-5,0
INTELSAT 14 (IS-14),2009-064A,2026-07-16T06:15:49.504032,1.00268332,.00022517,0.0162,343.2667,141.4450,218.3188,0,U,36097,999,6089,0,-.284E-5,0
INTELSAT 15 (IS-15),2009-067A,2026-07-15T22:19:32.831040,1.00268551,.0002252,0.0167,359.1777,122.2404,232.3618,0,U,36106,999,4151,0,-.195E-5,0
DIRECTV 12,2009-075A,2026-07-14T23:11:38.372640,1.00271543,.00003517,0.0065,109.4409,121.9560,306.6005,0,U,36131,999,4683,0,-.112E-5,0
INTELSAT 16 (IS-16),2010-006A,2026-07-16T06:06:57.853728,1.00269781,.00023902,0.0127,52.8977,85.3261,171.3870,0,U,36397,999,5994,0,-.255E-5,0
XM-5,2010-053A,2026-07-13T06:37:25.387392,1.00270903,.0001728,0.0648,265.0318,322.3275,47.9546,0,U,37185,999,5774,0,-.26E-6,0
INTELSAT 17 (IS-17),2010-065B,2026-07-16T04:57:21.712320,1.00269284,.00030574,0.0365,99.3839,35.9376,299.0401,0,U,37238,999,5353,0,0,0
INTELSAT 28 (IS-28),2011-016A,2026-07-16T06:19:41.634048,1.00272105,.00037193,1.8795,82.2676,40.4363,234.6057,0,U,37392,999,5357,0,-.237E-5,0
INTELSAT 18 (IS-18),2011-056A,2026-07-15T14:13:30.485280,1.00274455,.00018888,0.0273,285.8659,199.7046,201.2331,0,U,37834,999,5409,0,.43E-6,0
INTELSAT 22 (IS-22),2012-011A,2026-07-16T04:57:21.712320,1.00271855,.0001838,0.0164,44.7709,80.0858,315.6214,0,U,38098,999,747,0,-.69E-6,0
INTELSAT 19 (IS-19),2012-030A,2026-07-16T02:07:55.438176,1.00271428,.00031997,0.0191,37.3690,90.3912,4.1400,0,U,38356,999,5074,0,-.67E-6,0
INTELSAT 20 (IS-20),2012-043A,2026-07-16T04:57:21.712320,1.00272894,.0001387,0.0126,66.9795,110.3777,259.5278,0,U,38740,999,5103,0,-.35E-6,0
INTELSAT 21 (IS-21),2012-045A,2026-07-16T06:12:12.350592,1.00272644,.00015723,0.0506,249.0427,237.3109,202.7878,0,U,38749,999,5081,0,-.295E-5,0
